{
  "type": "FeatureCollection",
  "features": [
    {
      "type": "Feature",
      "properties": {
        "norad_id": 27954,
        "name": "GALAXY 13 (HORIZONS-1)",
        "group": "intelsat",
        "lat": 0.9181311443006408,
        "lon": -168.62059879325787,
        "alt_km": 35783.51679471247,
        "timestamp": "2025-12-20T16:47:35.958616+00:00",
        "meta_object_name": "GALAXY 13 (HORIZONS-1)",
        "meta_object_id": "2003-044A",
        "meta_epoch": "2025-12-20T09:57:56.417184",
        "meta_mean_motion": 1.00269756,
        "meta_eccentricity": 0.0002377,
        "meta_inclination": 0.9563,
        "meta_ra_of_asc_node": 86.3737,
        "meta_arg_of_pericenter": 177.7476,
        "meta_mean_anomaly": 184.5966,
        "meta_ephemeris_type": 0,
        "meta_classification_type": "U",
        "meta_norad_cat_id": 27954,
        "meta_element_set_no": 999,
        "meta_rev_at_epoch": 4478,
        "meta_bstar": 0,
        "meta_mean_motion_dot": 1.56e-06,
        "meta_mean_motion_ddot": 0,
        "tle_line1": "1 27954U 03044A   25354.41523631  .00000156  00000+0  00000+0 0  9992",
        "tle_line2": "2 27954   0.9563  86.3737 0002377 177.7476 184.5966  1.00269756 44782"
      },
      "geometry": {
        "type": "Point",
        "coordinates": [
          -168.62059879325787,
          0.9181311443006408
        ]
      }
    },
    {
      "type": "Feature",
      "properties": {
        "norad_id": 28358,
        "name": "INTELSAT 10-02",
        "group": "intelsat",
        "lat": -0.024677133002099755,
        "lon": -19.539333280705826,
        "alt_km": 35783.51985135805,
        "timestamp": "2025-12-20T16:47:35.958628+00:00",
        "meta_object_name": "INTELSAT 10-02",
        "meta_object_id": "2004-022A",
        "meta_epoch": "2025-12-20T08:05:23.151264",
        "meta_mean_motion": 1.00270527,
        "meta_eccentricity": 8.89e-05,
        "meta_inclination": 0.0213,
        "meta_ra_of_asc_node": 70.3166,
        "meta_arg_of_pericenter": 231.0775,
        "meta_mean_anomaly": 268.1602,
        "meta_ephemeris_type": 0,
        "meta_classification_type": "U",
        "meta_norad_cat_id": 28358,
        "meta_element_set_no": 999,
        "meta_rev_at_epoch": 7876,
        "meta_bstar": 0,
        "meta_mean_motion_dot": 1.3e-07,
        "meta_mean_motion_ddot": 0,
        "tle_line1": "1 28358U 04022A   25354.33707351  .00000013  00000+0  00000+0 0  9994",
        "tle_line2": "2 28358   0.0213  70.3166 0000889 231.0775 268.1602  1.00270527 78764"
      },
      "geometry": {
        "type": "Point",
        "coordinates": [
          -19.539333280705826,
          -0.024677133002099755
        ]
      }
    },
    {
      "type": "Feature",
      "properties": {
        "norad_id": 28626,
        "name": "XM-3 (RHYTHM)",
        "group": "intelsat",
        "lat": -0.05471396894784593,
        "lon": 57.90981756114114,
        "alt_km": 36156.40117153911,
        "timestamp": "2025-12-20T16:47:35.958640+00:00",
        "meta_object_name": "XM-3 (RHYTHM)",
        "meta_object_id": "2005-008A",
        "meta_epoch": "2025-12-20T10:10:33.662208",
        "meta_mean_motion": 0.98949953,
        "meta_eccentricity": 0.0001941,
        "meta_inclination": 0.1936,
        "meta_ra_of_asc_node": 81.981,
        "meta_arg_of_pericenter": 278.0796,
        "meta_mean_anomaly": 319.6205,
        "meta_ephemeris_type": 0,
        "meta_classification_type": "U",
        "meta_norad_cat_id": 28626,
        "meta_element_set_no": 999,
        "meta_rev_at_epoch": 4082,
        "meta_bstar": 0,
        "meta_mean_motion_dot": 7.2e-07,
        "meta_mean_motion_ddot": 0,
        "tle_line1": "1 28626U 05008A   25354.42400072  .00000072  00000+0  00000+0 0  9992",
        "tle_line2": "2 28626   0.1936  81.9810 0001941 278.0796 319.6205  0.98949953 40822"
      },
      "geometry": {
        "type": "Point",
        "coordinates": [
          57.90981756114114,
          -0.05471396894784593
        ]
      }
    },
    {
      "type": "Feature",
      "properties": {
        "norad_id": 28659,
        "name": "DIRECTV 8",
        "group": "intelsat",
        "lat": -0.03146766253524484,
        "lon": -137.65837491758776,
        "alt_km": 35780.017722613055,
        "timestamp": "2025-12-20T16:47:35.958652+00:00",
        "meta_object_name": "DIRECTV 8",
        "meta_object_id": "2005-019A",
        "meta_epoch": "2025-12-20T10:08:09.379392",
        "meta_mean_motion": 1.00270176,
        "meta_eccentricity": 0.0002883,
        "meta_inclination": 0.0251,
        "meta_ra_of_asc_node": 9.5951,
        "meta_arg_of_pericenter": 270.6825,
        "meta_mean_anomaly": 201.9689,
        "meta_ephemeris_type": 0,
        "meta_classification_type": "U",
        "meta_norad_cat_id": 28659,
        "meta_element_set_no": 999,
        "meta_rev_at_epoch": 7528,
        "meta_bstar": 0,
        "meta_mean_motion_dot": 0,
        "meta_mean_motion_ddot": 0,
        "tle_line1": "1 28659U 05019A   25354.42233078  .00000000  00000+0  00000+0 0  9991",
        "tle_line2": "2 28659   0.0251   9.5951 0002883 270.6825 201.9689  1.00270176 75281"
      },
      "geometry": {
        "type": "Point",
        "coordinates": [
          -137.65837491758776,
          -0.03146766253524484
        ]
      }
    },
    {
      "type": "Feature",
      "properties": {
        "norad_id": 28702,
        "name": "GALAXY 28 (G-28)",
        "group": "intelsat",
        "lat": 0.39218796477707835,
        "lon": -107.26199836077018,
        "alt_km": 35774.77299335223,
        "timestamp": "2025-12-20T16:47:35.958664+00:00",
        "meta_object_name": "GALAXY 28 (G-28)",
        "meta_object_id": "2005-022A",
        "meta_epoch": "2025-12-20T00:49:30.482112",
        "meta_mean_motion": 1.00271047,
        "meta_eccentricity": 0.00029384,
        "meta_inclination": 2.8382,
        "meta_ra_of_asc_node": 81.1982,
        "meta_arg_of_pericenter": 194.0723,
        "meta_mean_anomaly": 97.2981,
        "meta_ephemeris_type": 0,
        "meta_classification_type": "U",
        "meta_norad_cat_id": 28702,
        "meta_element_set_no": 999,
        "meta_rev_at_epoch": 5017,
        "meta_bstar": 0,
        "meta_mean_motion_dot": -1.65e-06,
        "meta_mean_motion_ddot": 0,
        "tle_line1": "1 28702U 05022A   25354.03438058 -.00000165  00000+0  00000+0 0  9999",
        "tle_line2": "2 28702   2.8382  81.1982 0002938 194.0723  97.2981  1.00271047 50172"
      },
      "geometry": {
        "type": "Point",
        "coordinates": [
          -107.26199836077018,
          0.39218796477707835
        ]
      }
    },
    {
      "type": "Feature",
      "properties": {
        "norad_id": 29236,
        "name": "GALAXY 16 (G-16)",
        "group": "intelsat",
        "lat": 0.006666339542010975,
        "lon": -117.59770274856785,
        "alt_km": 35776.98948600007,
        "timestamp": "2025-12-20T16:47:35.958676+00:00",
        "meta_object_name": "GALAXY 16 (G-16)",
        "meta_object_id": "2006-023A",
        "meta_epoch": "2025-12-20T12:09:57.868128",
        "meta_mean_motion": 1.00271154,
        "meta_eccentricity": 0.0002466,
        "meta_inclination": 0.0202,
        "meta_ra_of_asc_node": 181.2175,
        "meta_arg_of_pericenter": 88.6621,
        "meta_mean_anomaly": 262.9469,
        "meta_ephemeris_type": 0,
        "meta_classification_type": "U",
        "meta_norad_cat_id": 29236,
        "meta_element_set_no": 999,
        "meta_rev_at_epoch": 7118,
        "meta_bstar": 0,
        "meta_mean_motion_dot": -1.03e-06,
        "meta_mean_motion_ddot": 0,
        "tle_line1": "1 29236U 06023A   25354.50691977 -.00000103  00000+0  00000+0 0  9999",
        "tle_line2": "2 29236   0.0202 181.2175 0002466  88.6621 262.9469  1.00271154 71188"
      },
      "geometry": {
        "type": "Point",
        "coordinates": [
          -117.59770274856785,
          0.006666339542010975
        ]
      }
    },
    {
      "type": "Feature",
      "properties": {
        "norad_id": 29494,
        "name": "DIRECTV 9S",
        "group": "intelsat",
        "lat": 0.7399351199061052,
        "lon": -119.79378285119479,
        "alt_km": 35776.206945697064,
        "timestamp": "2025-12-20T16:47:35.958688+00:00",
        "meta_object_name": "DIRECTV 9S",
        "meta_object_id": "2006-043A",
        "meta_epoch": "2025-12-20T07:57:38.594016",
        "meta_mean_motion": 1.00271657,
        "meta_eccentricity": 0.0002824,
        "meta_inclination": 1.9586,
        "meta_ra_of_asc_node": 83.1334,
        "meta_arg_of_pericenter": 191.9761,
        "meta_mean_anomaly": 192.2576,
        "meta_ephemeris_type": 0,
        "meta_classification_type": "U",
        "meta_norad_cat_id": 29494,
        "meta_element_set_no": 999,
        "meta_rev_at_epoch": 4959,
        "meta_bstar": 0,
        "meta_mean_motion_dot": -9.1e-07,
        "meta_mean_motion_ddot": 0,
        "tle_line1": "1 29494U 06043A   25354.33169669 -.00000091  00000+0  00000+0 0  9992",
        "tle_line2": "2 29494   1.9586  83.1334 0002824 191.9761 192.2576  1.00271657 49599"
      },
      "geometry": {
        "type": "Point",
        "coordinates": [
          -119.79378285119479,
          0.7399351199061052
        ]
      }
    }
  ]
}